{
  "norad_id": 63016,
  "name": "STARLINK-11545 [DTC]",
  "history": [
    {
      "epoch": "2026-03-28T22:40:13.407168Z",
      "apogee_km": 357.752201946304,
      "perigee_km": 354.978529801896,
      "latitude_deg": -2.4561507246013185e-05,
      "longitude_deg": -87.27616520424243,
      "height_km": 356.7178761362377,
      "semi_major_axis_km": 6734.5023658741,
      "eccentricity": 0.00020593,
      "inclination_deg": 43.0009,
      "raan_deg": 79.1375,
      "arg_perigee_deg": 245.2928,
      "mean_anomaly_deg": 114.7725,
      "mean_motion_rev_day": 15.70885378
    },
    {
      "epoch": "2026-03-29T01:43:21.165600Z",
      "apogee_km": 357.5717305130256,
      "perigee_km": 355.4947582096638,
      "latitude_deg": -3.742683084708208e-05,
      "longitude_deg": -133.9508532653918,
      "height_km": 356.70488249646235,
      "semi_major_axis_km": 6734.670244361344,
      "eccentricity": 0.0001542,
      "inclination_deg": 43.0003,
      "raan_deg": 78.3705,
      "arg_perigee_deg": 247.3937,
      "mean_anomaly_deg": 112.6767,
      "mean_motion_rev_day": 15.70826641
    },
    {
      "epoch": "2026-03-30T05:11:25.420416Z",
      "apogee_km": 357.23959707746053,
      "perigee_km": 355.6436366368389,
      "latitude_deg": 2.208338737180064e-05,
      "longitude_deg": 166.00501805672084,
      "height_km": 356.9922732577043,
      "semi_major_axis_km": 6734.578616857149,
      "eccentricity": 0.00011849,
      "inclination_deg": 43.0015,
      "raan_deg": 71.4721,
      "arg_perigee_deg": 167.7179,
      "mean_anomaly_deg": 192.3718,
      "mean_motion_rev_day": 15.70858699
    },
    {
      "epoch": "2026-03-30T08:14:32.380512Z",
      "apogee_km": 357.9463950599202,
      "perigee_km": 354.6921710948118,
      "latitude_deg": 4.5413911560699415e-05,
      "longitude_deg": 119.33390423190211,
      "height_km": 356.3852499750159,
      "semi_major_axis_km": 6734.456283077366,
      "eccentricity": 0.00024161,
      "inclination_deg": 43.0012,
      "raan_deg": 70.7053,
      "arg_perigee_deg": 259.6371,
      "mean_anomaly_deg": 100.4225,
      "mean_motion_rev_day": 15.70901502
    },
    {
      "epoch": "2026-03-31T14:45:45.482400Z",
      "apogee_km": 356.69452658643604,
      "perigee_km": 356.12209023522155,
      "latitude_deg": -4.0944483483834606e-05,
      "longitude_deg": 12.610398135853043,
      "height_km": 356.0346180673573,
      "semi_major_axis_km": 6734.5453084108285,
      "eccentricity": 4.25e-05,
      "inclination_deg": 42.9998,
      "raan_deg": 63.0399,
      "arg_perigee_deg": 300.486,
      "mean_anomaly_deg": 59.5965,
      "mean_motion_rev_day": 15.70870353
    },
    {
      "epoch": "2026-04-01T07:32:54.568608Z",
      "apogee_km": 357.4529402582366,
      "perigee_km": 355.30193634664374,
      "latitude_deg": -4.358981722752624e-05,
      "longitude_deg": 115.91856638199617,
      "height_km": 356.16524194270414,
      "semi_major_axis_km": 6734.51443830244,
      "eccentricity": 0.0001597,
      "inclination_deg": 43.0008,
      "raan_deg": 58.8253,
      "arg_perigee_deg": 269.1952,
      "mean_anomaly_deg": 90.8732,
      "mean_motion_rev_day": 15.70881154
    },
    {
      "epoch": "2026-04-02T14:04:06.683808Z",
      "apogee_km": 357.25228108975807,
      "perigee_km": 355.3600372508945,
      "latitude_deg": -1.2209707568507916e-05,
      "longitude_deg": 9.198007921508973,
      "height_km": 355.53190535398016,
      "semi_major_axis_km": 6734.443159170326,
      "eccentricity": 0.00014049,
      "inclination_deg": 43.0009,
      "raan_deg": 51.1586,
      "arg_perigee_deg": 54.8781,
      "mean_anomaly_deg": 305.2218,
      "mean_motion_rev_day": 15.70906094
    },
    {
      "epoch": "2026-04-02T21:41:53.205792Z",
      "apogee_km": 357.17567464075,
      "perigee_km": 355.01977673566944,
      "latitude_deg": -3.497847429787569e-05,
      "longitude_deg": -107.47569384072678,
      "height_km": 356.42509303705776,
      "semi_major_axis_km": 6734.234725688209,
      "eccentricity": 0.00016007,
      "inclination_deg": 43.0,
      "raan_deg": 49.2421,
      "arg_perigee_deg": 239.0093,
      "mean_anomaly_deg": 121.0617,
      "mean_motion_rev_day": 15.70979027
    },
    {
      "epoch": "2026-04-03T05:19:42.602304Z",
      "apogee_km": 357.69542815926616,
      "perigee_km": 355.2830850341543,
      "latitude_deg": 4.3659336926714965e-05,
      "longitude_deg": 135.84090236752021,
      "height_km": 355.47852133533235,
      "semi_major_axis_km": 6734.62625659671,
      "eccentricity": 0.0001791,
      "inclination_deg": 43.0002,
      "raan_deg": 47.3278,
      "arg_perigee_deg": 310.4961,
      "mean_anomaly_deg": 49.5751,
      "mean_motion_rev_day": 15.70842031
    }
  ]
}